# Last updated: 1584396179.865948
ICESAT-2                
1 43613U 18070A   20076.38170367  .00001205  00000-0  43610-4 0  9999
2 43613  92.0020  36.3016 0002645  75.9807 284.1736 15.28275604 83679
SURFSAT                 
1 43614U 18070B   20076.16113997  .00002308  00000-0  60360-4 0  9998
2 43614  93.0262 116.0311 0014451 348.7160  11.3768 15.38732935 84137
CP7 (DAVE)              
1 43615U 18070C   20076.37960144  .00002128  00000-0  55903-4 0  9993
2 43615  93.0263 116.1167 0014631 346.9455  13.1418 15.38612944 84168
ELFIN-B                 
1 43616U 18070D   20075.84548269  .00002917  00000-0  73757-4 0  9998
2 43616  93.0226 115.8139 0015197 351.5570   8.5426 15.39743794 84112
ELFIN-A                 
1 43617U 18070E   20076.14874666  .00003370  00000-0  84776-4 0  9993
2 43617  93.0281 116.3734 0014324 347.2478  12.8412 15.39894448 84162
SSTL S1-4               
1 43618U 18071A   20076.52842430  .00000215  00000-0  25030-4 0  9994
2 43618  97.7679 332.8870 0012622 222.8612 137.1659 14.94915393 81690
NOVASAR 1               
1 43619U 18071B   20076.51836159 -.00000173  00000-0 -10562-4 0  9994
2 43619  97.7690 332.8285 0005432 217.9769 142.1093 14.94898744 81680
BEIDOU-3 M13            
1 43622U 18072A   20076.15425990 -.00000034  00000-0  00000-0 0  9993
2 43622  55.1055 139.0594 0007001 280.8675 312.4257  1.86231547 10119
BEIDOU-3 M14            
1 43623U 18072B   20076.11588345 -.00000034  00000-0  00000-0 0  9994
2 43623  55.1069 139.0511 0005453 305.3161 352.4460  1.86231639 10118
AZERSPACE 2 (IS-38)     
1 43632U 18074A   20076.10158677  .00000116  00000-0  00000+0 0  9995
2 43632   0.0175 169.9189 0001407 202.8298 243.0725  1.00271300  5595
HORIZONS 3E             
1 43633U 18074B   20076.39716463 -.00000052  00000-0  00000+0 0  9990
2 43633   0.0351 344.0837 0000401  70.0474  72.2526  1.00271268  5440
CENTISPACE-1 S1         
1 43636U 18075A   20076.51841524  .00000075  00000-0  26690-4 0  9997
2 43636  98.1570 150.6258 0012654  57.0682 303.1733 14.57228095 77813
1998-067PN              
1 43638U 98067PN  20076.18746418  .00010304  00000-0  12089-3 0  9999
2 43638  51.6370  62.9913 0003185  52.4634 307.6649 15.62139697 82092
1998-067PP              
1 43639U 98067PP  20076.21114121  .00017372  00000-0  17438-3 0  9999
2 43639  51.6373  57.1632 0005251  53.5930 306.5549 15.65586292 82173
STARS-ME                
1 43640U 98067PQ  20076.24122303  .00012752  00000-0  14114-3 0  9990
2 43640  51.6362  60.3245 0005400  46.4686 313.6756 15.63389777 82136
SAOCOM 1A               
1 43641U 18076A   20076.45646634 -.00000014  00000-0  48187-5 0  9992
2 43641  97.8873 263.8956 0001503  82.7228 277.4156 14.82154768 77821
YAOGAN-32 A             
1 43642U 18077A   20076.44616910  .00000039  00000-0  17906-4 0  9997
2 43642  98.2035 133.2513 0001822  94.1338 266.0071 14.59273904 76466
YAOGAN-32 B             
1 43643U 18077B   20076.44606874  .00000039  00000-0  17991-4 0  9990
2 43643  98.2037 133.2379 0001804  92.2518 267.8888 14.59273433 76460
BEIDOU-3 M15            
1 43647U 18078A   20076.09146740 -.00000102  00000-0  10000-3 0  9992
2 43647  55.1856  18.8303 0008047 335.5076 201.1014  1.86232861  9631
BEIDOU-3 M16            
1 43648U 18078B   20076.33847337 -.00000103  00000-0  10000-3 0  9991
2 43648  55.1804  18.8280 0005796 342.7074 268.7484  1.86232144  9640
AEHF-4 (USA 288)        
1 43651U 18079A   20076.27806499  .00000107  00000-0  00000+0 0  9991
2 43651   4.0606 311.1822 0003091  39.9690 133.2743  1.00277441  5389
HAIYANG-2B              
1 43655U 18081A   20075.91209221 -.00000046  00000-0 -13165-5 0  9994
2 43655  99.3503  84.6593 0001233 138.2227 221.9023 13.79301589 70027
COSMOS 2528             
1 43657U 18082A   20076.43815323 -.00000075  00000-0  00000+0 0  9990
2 43657  67.1463 227.2331 0007966 267.4859  92.5313 13.96502611 71020
CFOSAT                  
1 43662U 18083A   20076.53379387  .00000446  00000-0  26368-4 0  9994
2 43662  97.4899 102.2624 0001688  85.3892  67.9726 15.16369236 76455
CUBEBEL-1 (BSUSAT-1)    
1 43666U 18083E   20076.43847579  .00000746  00000-0  39930-4 0  9992
2 43666  97.4981 103.7843 0013987 330.0166 139.7983 15.18074175 76505
CHANGSHAGAOXIN (TY 4-01)
1 43669U 18083H   20076.48672930  .00000623  00000-0  34780-4 0  9999
2 43669  97.4864 102.3086 0009766 324.2241  35.8337 15.17152378 76433
GOSAT 2                 
1 43672U 18084B   20075.84434592 -.00000081  00000-0 -33494-5 0  9995
2 43672  97.8552 187.9802 0001386  96.7975 263.3397 14.84245548 74713
KHALIFASAT              
1 43676U 18084F   20076.23702344  .00000338  00000-0  41931-4 0  9993
2 43676  97.8622 192.1366 0017696  87.4402 272.8839 14.88839713 74983
TEN-KOH                 
1 43677U 18084G   20076.09351521  .00000065  00000-0  12508-4 0  9990
2 43677  97.8702 193.4532 0017473 105.6190 254.6957 14.90256593 75030
DIWATA-2B               
1 43678U 18084H   20076.56522073  .00000434  00000-0  48895-4 0  9993
2 43678  97.8703 195.0479 0011334 119.4554 240.7804 14.91614983 75171
STARS-AO                
1 43679U 18084J   20076.27090141  .00000421  00000-0  46970-4 0  9996
2 43679  97.8750 195.3252 0010355 128.6546 231.5601 14.92167133 75153
DEBRISSAT-2             
1 43680U 98067PR  20076.37170543  .00094899  00000-0  45328-3 0  9990
2 43680  51.6346  35.5211 0004648 108.3514 251.7994 15.82018802 99278
AUTCUBE 2               
1 43681U 18084K   20075.84606721  .00000002  00000-0  58403-5 0  9998
2 43681  97.8721 194.4709 0010793 123.5671 236.6580 14.91808544 75036
BEIDOU-3 G1             
1 43683U 18085A   20076.19318448 -.00000267  00000-0  00000-0 0  9995
2 43683   1.9721 259.8316 0001406 143.4471 345.0105  1.00274357  5153
COSMOS 2529 [GLONASS-M] 
1 43687U 18086A   20075.87699626  .00000053  00000-0  00000+0 0  9995
2 43687  64.5936 270.3910 0007990 280.8196 116.6479  2.13102055 10615
METOP-C                 
1 43689U 18087A   20076.46024787 -.00000020  00000-0  10670-4 0  9998
2 43689  98.7101 137.3563 0001211 229.1891 130.9181 14.21485142 70386
CICERO 10               
1 43690U 18088A   20076.15086856  .00000766  00000-0  33630-4 0  9999
2 43690  85.0387 139.8039 0012712 296.1818  63.8115 15.20082362 74583
NABEO-1 & KICK STAGE    
1 43692U 18088C   20076.11697890  .00001086  00000-0  47698-4 0  9998
2 43692  85.0347 139.4148 0014439 273.6261  86.3329 15.20568275 74554
IRVINE01                
1 43693U 18088D   20076.17226366  .00001981  00000-0  83677-4 0  9992
2 43693  85.0358 138.7504 0015405 274.4038  85.5444 15.22460487 74658
PROXIMA I               
1 43694U 18088E   20076.31494886  .00000785  00000-0  32680-4 0  9992
2 43694  85.0328 138.4610 0016893 265.1309  94.8004 15.21812486 74677
LEMUR-2-ZUPANSKI        
1 43695U 18088F   20076.14031405  .00001074  00000-0  46584-4 0  9998
2 43695  85.0326 139.1182 0014934 290.8304  69.1338 15.20977369 74566
PROXIMA II              
1 43696U 18088G   20075.78728504  .00000746  00000-0  30988-4 0  9997
2 43696  85.0330 138.8126 0016927 267.2861  92.6444 15.21814746 74598
LEMUR-2-CHANUSIAK       
1 43697U 18088H   20076.15822263  .00001114  00000-0  47322-4 0  9997
2 43697  85.0389 139.1308 0013534 268.9572  91.0119 15.21739896 74647
GSAT-29                 
1 43698U 18089A   20076.01716365  .00000064  00000-0  00000-0 0  9990
2 43698   0.0283 114.1909 0002119 239.3543 241.6834  1.00273198  4881
ES'HAIL 2               
1 43700U 18090A   20076.16954353  .00000123  00000-0  00000-0 0  9999
2 43700   0.0051 215.1661 0002366 177.9621 227.8843  1.00271231  4773
BEIDOU-3 M17            
1 43706U 18093A   20076.28308153  .00000041  00000-0  00000-0 0  9991
2 43706  54.6987 260.1611 0007629 269.5875 200.1433  1.86231776  8994
BEIDOU-3 M18            
1 43707U 18093B   20076.24733751  .00000041  00000-0  00000-0 0  9994
2 43707  54.7007 260.1548 0006920 300.0514 236.1584  1.86231998  8994
TIANZHI 1               
1 43710U 18094A   20076.50089219  .00000234  00000-0  12726-4 0  9997
2 43710  97.4082  85.1289 0014763  18.6120 132.7885 15.23602348 73467
SHIYUAN 6 (SY-6)        
1 43711U 18094B   20076.50871700  .00000249  00000-0  14692-4 0  9992
2 43711  97.4103  83.2148 0013119  21.8748 129.2216 15.20029869 73334
TIANPING 1A             
1 43712U 18094C   20076.50291416  .00000625  00000-0  28898-4 0  9994
2 43712  97.4077  85.1340 0014081  16.3299 134.7672 15.23775457 73464
JIADING 1               
1 43713U 18094D   20076.16433601  .00000480  00000-0  22824-4 0  9993
2 43713  97.4072  84.9073 0015011  21.6605  42.6265 15.23858318 73412
TIANPING 1B             
1 43714U 18094E   20076.51210044  .00000399  00000-0  19600-4 0  9994
2 43714  97.4083  85.1360 0013422  18.5512 133.6066 15.23628996 73465
MOHAMMED VI-B           
1 43717U 18095A   20076.18995957  .00000028  00000-0  11082-4 0  9999
2 43717  97.9479 149.3164 0001230 103.8501 256.2846 14.77092580 71027
HYSIS                   
1 43719U 18096A   20076.50619388  .00000097  00000-0  20210-4 0  9998
2 43719  97.9131 145.3114 0011041 160.6061 199.5578 14.78719188 69937
HSAT                    
1 43720U 18096B   20076.44882607  .00002988  00000-0  11206-3 0  9994
2 43720  97.4305 150.8357 0017868  92.7528 267.5756 15.27888418 72210
FACSAT-1                
1 43721U 18096C   20076.42682429  .00001371  00000-0  54358-4 0  9994
2 43721  97.4284 150.4860 0019394  91.7795 268.5665 15.26965096 72197
CENTAURI-2              
1 43722U 18096D   20076.22019072  .00001789  00000-0  69166-4 0  9997
2 43722  97.4292 150.4735 0019398  92.6155 267.7305 15.27406626 72161
FLOCK 3R-9              
1 43723U 18096E   20076.26708118  .00001262  00000-0  48140-4 0  9993
2 43723  97.4293 150.9024 0018803  94.1090 337.2549 15.28407547 72194
FLOCK 3R-12             
1 43724U 18096F   20076.17565827  .00001657  00000-0  62395-4 0  9998
2 43724  97.4295 150.8417 0018909  94.7983 265.5416 15.28388198 72181
FLOCK 3R-11             
1 43725U 18096G   20076.16262694  .00001231  00000-0  47013-4 0  9992
2 43725  97.4294 150.8504 0018931  95.0040 265.3361 15.28414749 72180
